{
    "links": {
        "self": "http://www.neowsapp.com/rest/v1/neo/3430497?api_key=iIulBulltgU6a56xZRHN4H3l9WmuAYTsLGpBGhQ2"
    },
    "id": "3430497",
    "neo_reference_id": "3430497",
    "name": "(2008 TS26)",
    "designation": "2008 TS26",
    "nasa_jpl_url": "http://ssd.jpl.nasa.gov/sbdb.cgi?sstr=3430497",
    "absolute_magnitude_h": 33.2,
    "estimated_diameter": {
        "kilometers": {
            "estimated_diameter_min": 0.0006089126,
            "estimated_diameter_max": 0.00136157
        },
        "meters": {
            "estimated_diameter_min": 0.6089126221,
            "estimated_diameter_max": 1.3615700154
        },
        "miles": {
            "estimated_diameter_min": 0.0003783606,
            "estimated_diameter_max": 0.0008460401
        },
        "feet": {
            "estimated_diameter_min": 1.9977448871,
            "estimated_diameter_max": 4.4670933693
        }
    },
    "is_potentially_hazardous_asteroid": false,
    "close_approach_data": [
        {
            "close_approach_date": "2008-10-09",
            "close_approach_date_full": "2008-Oct-09 03:30",
            "epoch_date_close_approach": 1223523000000,
            "relative_velocity": {
                "kilometers_per_second": "15.7604153753",
                "kilometers_per_hour": "56737.4953512305",
                "miles_per_hour": "35254.4731531021"
            },
            "miss_distance": {
                "astronomical": "0.0000844275",
                "lunar": "0.0328422975",
                "kilometers": "12630.174169425",
                "miles": "7848.026311065"
            },
            "orbiting_body": "Earth"
        },
        {
            "close_approach_date": "2008-10-09",
            "close_approach_date_full": "2008-Oct-09 05:27",
            "epoch_date_close_approach": 1223530020000,
            "relative_velocity": {
                "kilometers_per_second": "12.9705559191",
                "kilometers_per_hour": "46694.0013088187",
                "miles_per_hour": "29013.8365354713"
            },
            "miss_distance": {
                "astronomical": "0.0026356808",
                "lunar": "1.0252798312",
                "kilometers": "394292.233679896",
                "miles": "245001.8331227248"
            },
            "orbiting_body": "Moon"
        }
    ],
    "orbital_data": {
        "orbit_id": "8",
        "orbit_determination_date": "2017-04-06 09:02:36",
        "first_observation_date": "2008-10-09",
        "last_observation_date": "2008-10-09",
        "data_arc_in_days": null,
        "observations_used": 19,
        "orbit_uncertainty": "9",
        "minimum_orbit_intersection": "7.31995E-5",
        "jupiter_tisserand_invariant": "3.707",
        "epoch_osculation": "2454748.5",
        "eccentricity": ".5690024724449811",
        "semi_major_axis": "1.921982968654026",
        "inclination": ".8112648169775671",
        "ascending_node_longitude": "16.42828736237761",
        "orbital_period": "973.2462280990754",
        "perihelion_distance": ".8283699074927406",
        "perihelion_argument": "301.6450280744966",
        "aphelion_distance": "3.015596029815312",
        "perihelion_time": "2454708.258316691372",
        "mean_anomaly": "14.88524237016752",
        "mean_motion": ".3698961163231473",
        "equinox": "J2000",
        "orbit_class": {
            "orbit_class_type": "APO",
            "orbit_class_description": "Near-Earth asteroid orbits which cross the Earth’s orbit similar to that of 1862 Apollo",
            "orbit_class_range": "a (semi-major axis) > 1.0 AU; q (perihelion) < 1.017 AU"
        }
    },
    "is_sentry_object": false
}